NORAD_CAT_ID,OBJECT_NAME,OBJECT_TYPE,EPOCH,MEAN_MOTION,ECCENTRICITY,INCLINATION,RA_OF_ASC_NODE,ARG_OF_PERICENTER,MEAN_ANOMALY,BSTAR,MEAN_MOTION_DOT,MEAN_MOTION_DDOT,TLE_LINE0,TLE_LINE1,TLE_LINE2,SEMIMAJOR_AXIS,PERIOD,APOGEE,PERIGEE,DECAYED
54007.0,STARLINK-5132,PAYLOAD,2024-05-08 21:50:43,15.08847329,0.0001274,53.2163,340.5236,92.5358,267.578,0.00026302,3.901e-05,0.0,0 STARLINK-5132,1 54007U 22125AV  24129.91022017  .00003901  00000-0  26302-3 0  9997,2 54007  53.2163 340.5236 0001274  92.5358 267.5780 15.08847329 88353,6917.858,95.437,540.604,538.842,0.0
54007.0,STARLINK-5132,PAYLOAD,2024-05-09 07:23:02,15.08842723,0.000114,53.2152,338.738,96.3692,263.743,0.00022603,3.312e-05,0.0,0 STARLINK-5132,1 54007U 22125AV  24130.30766251  .00003312  00000-0  22603-3 0  9993,2 54007  53.2152 338.7380 0001140  96.3692 263.7430 15.08842723 88460,6917.872,95.437,540.526,538.948,0.0
54007.0,STARLINK-5132,PAYLOAD,2024-05-09 20:06:07,15.08846996,0.0001308,53.2173,336.3598,86.9423,273.1718,0.00030662,4.596e-05,0.0,0 STARLINK-5132,1 54007U 22125AV  24130.83758342  .00004596  00000-0  30662-3 0  9992,2 54007  53.2173 336.3598 0001308  86.9423 273.1718 15.08846996 88494,6917.859,95.437,540.629,538.819,0.0
54007.0,STARLINK-5132,PAYLOAD,2024-05-10 13:35:21,15.08845448,0.0001395,53.2167,333.0913,83.8103,276.3048,0.0002264,3.318e-05,0.0,0 STARLINK-5132,1 54007U 22125AV  24131.56622479  .00003318  00000-0  22640-3 0  9992,2 54007  53.2167 333.0913 0001395  83.8103 276.3048 15.08845448 88659,6917.864,95.437,540.694,538.764,0.0
54007.0,STARLINK-5132,PAYLOAD,2024-05-10 19:56:54,15.08854134,0.0001269,53.2171,331.9012,87.5019,272.6119,0.00046676,7.151e-05,0.0,0 STARLINK-5132,1 54007U 22125AV  24131.83118217  .00007151  00000-0  46676-3 0  9996,2 54007  53.2171 331.9012 0001269  87.5019 272.6119 15.08854134 88647,6917.837,95.437,540.58,538.824,0.0
54007.0,STARLINK-5132,PAYLOAD,2024-05-11 13:26:05,15.08918677,0.000127,53.2182,328.6261,120.3117,239.8001,0.0017576,0.00027855,0.0,0 STARLINK-5132,1 54007U 22125AV  24132.55978728  .00027855  00000-0  17576-2 0  9996,2 54007  53.2182 328.6261 0001270 120.3117 239.8001 15.08918677 88801,6917.64,95.433,540.383,538.626,0.0
54007.0,STARLINK-5132,PAYLOAD,2024-05-11 19:47:38,15.08824074,0.0001004,53.2167,327.44,93.2956,266.8151,-0.0018225,-0.00029163,0.0,0 STARLINK-5132,1 54007U 22125AV  24132.82475205 -.00029163  00000-0 -18225-2 0  9996,2 54007  53.2167 327.4400 0001004  93.2956 266.8151 15.08824074 88847,6917.929,95.439,540.489,539.1,0.0
54007.0,STARLINK-5132,PAYLOAD,2024-05-12 19:38:30,15.08806541,0.0001277,53.2174,322.9797,87.9207,272.1932,0.0010809,0.00016941,0.0,0 STARLINK-5132,1 54007U 22125AV  24133.81841148  .00016941  00000-0  10809-2 0  9997,2 54007  53.2174 322.9797 0001277  87.9207 272.1932 15.08806541 88997,6917.983,95.44,540.731,538.964,0.0
54007.0,STARLINK-5132,PAYLOAD,2024-05-13 05:10:49,15.08828636,0.0001479,53.2187,321.194,84.6826,275.4335,0.0012468,0.00019604,0.0,0 STARLINK-5132,1 54007U 22125AV  24134.21585609  .00019604  00000-0  12468-2 0  9991,2 54007  53.2187 321.1940 0001479  84.6826 275.4335 15.08828636 89002,6917.915,95.438,540.803,538.757,0.0
54007.0,STARLINK-5132,PAYLOAD,2024-05-13 21:04:40,15.0886721,0.0001197,53.2168,318.2208,81.4411,278.6717,0.0011976,0.00018837,0.0,0 STARLINK-5132,1 54007U 22125AV  24134.87824598  .00018837  00000-0  11976-2 0  9996,2 54007  53.2168 318.2208 0001197  81.4411 278.6717 15.08867210 89153,6917.797,95.436,540.49,538.834,0.0
54007.0,STARLINK-5132,PAYLOAD,2024-05-14 05:01:35,15.08866938,0.0001056,53.2155,316.7315,61.266,298.8438,0.0006986,0.00010856,0.0,0 STARLINK-5132,1 54007U 22125AV  24135.20944064  .00010856  00000-0  69860-3 0  9994,2 54007  53.2155 316.7315 0001056  61.2660 298.8438 15.08866938 89203,6917.798,95.436,540.394,538.933,0.0
54007.0,STARLINK-5132,PAYLOAD,2024-05-14 22:30:48,15.08883833,0.0001052,53.2158,313.4604,63.6237,296.4864,0.00081159,0.00012668,0.0,0 STARLINK-5132,1 54007U 22125AV  24135.93806374  .00012668  00000-0  81159-3 0  9993,2 54007  53.2158 313.4604 0001052  63.6237 296.4864 15.08883833 89269,6917.746,95.435,540.339,538.884,0.0
54007.0,STARLINK-5132,PAYLOAD,2024-05-15 04:52:21,15.08852657,0.0002655,53.2153,312.272,84.9059,275.2236,-0.00017498,-3.073e-05,0.0,0 STARLINK-5132,1 54007U 22125AV  24136.20302840 -.00003073  00000-0 -17498-3 0  9990,2 54007  53.2153 312.2720 0002655  84.9059 275.2236 15.08852657 89356,6917.842,95.437,541.543,537.87,0.0
54007.0,STARLINK-5132,PAYLOAD,2024-05-15 20:46:12,15.08860654,0.0001396,53.2171,309.3,95.9883,264.1268,0.00079171,0.00012342,0.0,0 STARLINK-5132,1 54007U 22125AV  24136.86542480  .00012342  00000-0  79171-3 0  9991,2 54007  53.2171 309.3000 0001396  95.9883 264.1268 15.08860654 89406,6917.817,95.436,540.648,538.717,0.0
54007.0,STARLINK-5132,PAYLOAD,2024-05-16 04:43:08,15.08845311,0.0001536,53.2161,307.8129,92.4271,267.6897,0.0009468,0.00014815,0.0,0 STARLINK-5132,1 54007U 22125AV  24137.19663065  .00014815  00000-0  94680-3 0  9990,2 54007  53.2161 307.8129 0001536  92.4271 267.6897 15.08845311 89509,6917.864,95.437,540.792,538.667,0.0
54007.0,STARLINK-5132,PAYLOAD,2024-05-16 17:26:13,15.08867981,0.0001417,53.2163,305.4329,94.2125,265.9029,0.0012131,0.00019086,0.0,0 STARLINK-5132,1 54007U 22125AV  24137.72654401  .00019086  00000-0  12131-2 0  9998,2 54007  53.2163 305.4329 0001417  94.2125 265.9029 15.08867981 89531,6917.795,95.436,540.64,538.68,0.0
54007.0,STARLINK-5132,PAYLOAD,2024-05-17 04:33:55,15.08857132,7.5e-05,53.217,303.3527,86.3212,273.7866,0.00067666,0.00010503,0.0,0 STARLINK-5132,1 54007U 22125AV  24138.19022178  .00010503  00000-0  67666-3 0  9999,2 54007  53.2170 303.3527 0000750  86.3212 273.7866 15.08857132 89650,6917.828,95.436,540.212,539.174,0.0
54007.0,STARLINK-5132,PAYLOAD,2024-05-17 17:17:01,15.0883583,0.0003,53.2159,300.9705,98.3239,261.8093,0.00052539,8.082e-05,0.0,0 STARLINK-5132,1 54007U 22125AV  24138.72015326  .00008082  00000-0  52539-3 0  9997,2 54007  53.2159 300.9705 0003000  98.3239 261.8093 15.08835830 89731,6917.893,95.438,541.834,537.683,0.0
54007.0,STARLINK-5132,PAYLOAD,2024-05-18 13:57:01,15.0887012,0.0001523,53.2116,297.1069,98.1071,262.0094,0.0016544,0.00026162,0.0,0 STARLINK-5132,1 54007U 22125AV  24139.58126881  .00026162  00000-0  16544-2 0  9995,2 54007  53.2116 297.1069 0001523  98.1071 262.0094 15.08870120 89818,6917.788,95.436,540.707,538.6,0.0
54007.0,STARLINK-5132,PAYLOAD,2024-05-18 17:07:47,15.08903685,0.0001409,53.2156,296.5108,81.7929,278.3223,0.0012745,0.00020089,0.0,0 STARLINK-5132,1 54007U 22125AV  24139.71374381  .00020089  00000-0  12745-2 0  9991,2 54007  53.2156 296.5108 0001409  81.7929 278.3223 15.08903685 89886,6917.686,95.434,540.525,538.576,0.0
54007.0,STARLINK-5132,PAYLOAD,2024-05-19 13:47:48,15.08822557,0.0001112,53.2143,292.647,82.0928,278.0191,0.00066906,0.00010371,0.0,0 STARLINK-5132,1 54007U 22125AV  24140.57486826  .00010371  00000-0  66906-3 0  9997,2 54007  53.2143 292.6470 0001112  82.0928 278.0191 15.08822557 89963,6917.934,95.439,540.568,539.029,0.0
54007.0,STARLINK-5132,PAYLOAD,2024-05-19 20:09:21,15.08831881,0.0001587,53.2176,291.4589,116.5382,243.5773,0.0020753,0.00032888,0.0,0 STARLINK-5132,1 54007U 22125AV  24140.83983009  .00032888  00000-0  20753-2 0  9997,2 54007  53.2176 291.4589 0001587 116.5382 243.5773 15.08831881 90055,6917.905,95.438,540.868,538.672,0.0
54007.0,STARLINK-5132,PAYLOAD,2024-05-20 10:27:49,15.08835061,0.000181,53.2165,288.7782,126.6122,233.5037,0.00075544,0.00011754,0.0,0 STARLINK-5132,1 54007U 22125AV  24141.43599444  .00011754  00000-0  75544-3 0  9998,2 54007  53.2165 288.7782 0001810 126.6122 233.5037 15.08835061 90146,6917.895,95.438,541.013,538.508,0.0
54007.0,STARLINK-5132,PAYLOAD,2024-05-20 13:38:36,15.08842962,0.0001674,53.2167,288.1834,116.7145,243.4018,0.00097152,0.00015209,0.0,0 STARLINK-5132,1 54007U 22125AV  24141.56847437  .00015209  00000-0  97152-3 0  9998,2 54007  53.2167 288.1834 0001674 116.7145 243.4018 15.08842962 90117,6917.871,95.437,540.894,538.578,0.0
54007.0,STARLINK-5132,PAYLOAD,2024-05-21 13:29:23,15.08837168,0.0001552,53.2171,283.7257,109.7828,250.3332,0.00011243,1.502e-05,0.0,0 STARLINK-5132,1 54007U 22125AV  24142.56207739  .00001502  00000-0  11243-3 0  9992,2 54007  53.2171 283.7257 0001552 109.7828 250.3332 15.08837168 90317,6917.889,95.438,540.828,538.68,0.0
54007.0,STARLINK-5132,PAYLOAD,2024-05-21 15:04:46,15.08835662,0.0001496,53.2172,283.4273,110.5019,249.6134,0.0001802,2.581e-05,0.0,0 STARLINK-5132,1 54007U 22125AV  24142.62831856  .00002581  00000-0  18020-3 0  9990,2 54007  53.2172 283.4273 0001496 110.5019 249.6134 15.08835662 90275,6917.894,95.438,540.794,538.724,0.0
54007.0,STARLINK-5132,PAYLOAD,2024-05-22 18:06:19,15.08847187,0.0001253,53.2163,278.3718,88.0437,272.0699,0.00021555,3.145e-05,0.0,0 STARLINK-5132,1 54007U 22125AV  24143.75439438  .00003145  00000-0  21555-3 0  9999,2 54007  53.2163 278.3718 0001253  88.0437 272.0699 15.08847187 90491,6917.858,95.437,540.59,538.857,0.0
54007.0,STARLINK-5132,PAYLOAD,2024-05-23 13:10:58,15.08829023,0.0001244,53.2174,274.8015,81.0093,279.104,-0.00014325,-2.566e-05,0.0,0 STARLINK-5132,1 54007U 22125AV  24144.54928405 -.00002566  00000-0 -14325-3 0  9999,2 54007  53.2174 274.8015 0001244  81.0093 279.1040 15.08829023 90616,6917.914,95.438,540.64,538.918,0.0
54007.0,STARLINK-5132,PAYLOAD,2024-05-23 14:46:21,15.08832414,0.0001794,53.2189,274.5084,74.4076,285.7114,1.4409e-05,-5.9e-07,0.0,0 STARLINK-5132,1 54007U 22125AV  24144.61552561 -.00000059  00000-0  14409-4 0  9991,2 54007  53.2189 274.5084 0001794  74.4076 285.7114 15.08832414 90570,6917.904,95.438,541.01,538.528,0.0
54007.0,STARLINK-5132,PAYLOAD,2024-05-23 17:57:07,15.08839535,0.0001744,53.2173,273.9096,81.9827,278.1363,8.4015e-05,1.049e-05,0.0,0 STARLINK-5132,1 54007U 22125AV  24144.74800181  .00001049  00000-0  84015-4 0  9998,2 54007  53.2173 273.9096 0001744  81.9827 278.1363 15.08839535 90642,6917.882,95.438,540.953,538.54,0.0
